NORAD_CAT_ID,OBJECT_NAME,OBJECT_TYPE,EPOCH,MEAN_MOTION,ECCENTRICITY,INCLINATION,RA_OF_ASC_NODE,ARG_OF_PERICENTER,MEAN_ANOMALY,BSTAR,MEAN_MOTION_DOT,MEAN_MOTION_DDOT,TLE_LINE0,TLE_LINE1,TLE_LINE2,SEMIMAJOR_AXIS,PERIOD,APOGEE,PERIGEE,DECAYED
55917.0,STARLINK-5855,PAYLOAD,2024-03-04 13:11:15,15.06294371,0.0005049,70.0016,354.6906,261.1707,98.8885,0.0018922,0.00027872,0.0,0 STARLINK-5855,1 55917U 23037D   24064.54948632  .00027872  00000-0  18922-2 0  9999,2 55917  70.0016 354.6906 0005049 261.1707  98.8885 15.06294371 53459,6925.672,95.599,551.034,544.041,0.0
55917.0,STARLINK-5855,PAYLOAD,2024-03-04 22:45:00,15.06319372,0.0005059,70.0017,353.6734,260.5158,99.5434,0.0015739,0.00023167,0.0,0 STARLINK-5855,1 55917U 23037D   24064.94792388  .00023167  00000-0  15739-2 0  9994,2 55917  70.0017 353.6734 0005059 260.5158  99.5434 15.06319372 53516,6925.596,95.597,550.964,543.957,0.0
55917.0,STARLINK-5855,PAYLOAD,2024-03-05 05:07:30,15.06339992,0.0005065,70.0016,352.9956,260.8111,99.2479,0.0018942,0.00027936,0.0,0 STARLINK-5855,1 55917U 23037D   24065.21354527  .00027936  00000-0  18942-2 0  9991,2 55917  70.0016 352.9956 0005065 260.8111  99.2479 15.06339992 53552,6925.532,95.596,550.905,543.89,0.0
55917.0,STARLINK-5855,PAYLOAD,2024-03-05 21:03:43,15.06380529,0.0005025,70.0018,351.3003,260.1197,99.9399,0.0018316,0.00027036,0.0,0 STARLINK-5855,1 55917U 23037D   24065.87758673  .00027036  00000-0  18316-2 0  9999,2 55917  70.0018 351.3003 0005025 260.1197  99.9399 15.06380529 53991,6925.408,95.593,550.753,543.793,0.0
55917.0,STARLINK-5855,PAYLOAD,2024-03-06 05:01:49,15.06398583,0.0005024,70.0019,350.4526,259.729,100.3307,0.0018395,0.00027166,0.0,0 STARLINK-5855,1 55917U 23037D   24066.20960134  .00027166  00000-0  18395-2 0  9995,2 55917  70.0019 350.4526 0005024 259.7290 100.3307 15.06398583 53703,6925.353,95.592,550.697,543.739,0.0
55917.0,STARLINK-5855,PAYLOAD,2024-03-07 03:20:28,15.0644884,0.0004953,70.0021,348.0786,259.7865,100.274,0.001696,0.00025066,0.0,0 STARLINK-5855,1 55917U 23037D   24067.13922035  .00025066  00000-0  16960-2 0  9999,2 55917  70.0021 348.0786 0004953 259.7865 100.2740 15.06448840 54180,6925.199,95.589,550.494,543.634,0.0
55917.0,STARLINK-5855,PAYLOAD,2024-03-08 04:50:18,15.06508196,0.0004868,70.0022,345.366,258.9514,101.1102,0.0019647,0.00029116,0.0,0 STARLINK-5855,1 55917U 23037D   24068.20160516  .00029116  00000-0  19647-2 0  9991,2 55917  70.0022 345.3660 0004868 258.9514 101.1102 15.06508196 54340,6925.017,95.585,550.253,543.511,0.0
55917.0,STARLINK-5855,PAYLOAD,2024-03-09 11:06:54,15.06578599,0.0004771,70.0021,342.1448,256.9403,103.1228,0.0021321,0.00031676,0.0,0 STARLINK-5855,1 55917U 23037D   24069.46313408  .00031676  00000-0  21321-2 0  9996,2 55917  70.0021 342.1448 0004771 256.9403 103.1228 15.06578599 54532,6924.801,95.581,549.97,543.362,0.0
55917.0,STARLINK-5855,PAYLOAD,2024-03-10 04:38:35,15.06611214,0.000463,70.002,340.2797,255.1124,104.9526,0.0015974,0.00023701,0.0,0 STARLINK-5855,1 55917U 23037D   24070.19346768  .00023701  00000-0  15974-2 0  9990,2 55917  70.0020 340.2797 0004630 255.1124 104.9526 15.06611214 54646,6924.701,95.579,549.772,543.36,0.0
55917.0,STARLINK-5855,PAYLOAD,2024-03-10 11:01:00,15.06623779,0.0004632,70.0017,339.6016,254.3828,105.6824,0.0015391,0.00022837,0.0,0 STARLINK-5855,1 55917U 23037D   24070.45903909  .00022837  00000-0  15391-2 0  9997,2 55917  70.0017 339.6016 0004632 254.3828 105.6824 15.06623779 54347,6924.663,95.578,549.735,543.32,0.0
55917.0,STARLINK-5855,PAYLOAD,2024-03-10 20:34:38,15.06642113,0.0004631,70.0018,338.5843,253.596,106.4694,0.0014751,0.00021891,0.0,0 STARLINK-5855,1 55917U 23037D   24070.85739219  .00021891  00000-0  14751-2 0  9990,2 55917  70.0018 338.5843 0004631 253.5960 106.4694 15.06642113 54405,6924.607,95.577,549.678,543.265,0.0
55917.0,STARLINK-5855,PAYLOAD,2024-03-11 10:55:04,15.06669119,0.0004632,70.0014,337.0579,252.9665,107.0991,0.0013643,0.0002025,0.0,0 STARLINK-5855,1 55917U 23037D   24071.45491232  .00020250  00000-0  13643-2 0  9994,2 55917  70.0014 337.0579 0004632 252.9665 107.0991 15.06669119 54836,6924.524,95.575,549.596,543.181,0.0
55917.0,STARLINK-5855,PAYLOAD,2024-03-12 17:11:29,15.06720901,0.0004642,70.0009,333.8358,250.7712,109.2949,0.001298,0.00019285,0.0,0 STARLINK-5855,1 55917U 23037D   24072.71631197  .00019285  00000-0  12980-2 0  9999,2 55917  70.0009 333.8358 0004642 250.7712 109.2949 15.06720901 55025,6924.365,95.572,549.445,543.016,0.0
55917.0,STARLINK-5855,PAYLOAD,2024-03-13 10:43:04,15.06749094,0.0004662,70.0007,331.9702,250.2055,109.8606,0.0012228,0.00018173,0.0,0 STARLINK-5855,1 55917U 23037D   24073.44657628  .00018173  00000-0  12228-2 0  9997,2 55917  70.0007 331.9702 0004662 250.2055 109.8606 15.06749094 54795,6924.279,95.57,549.372,542.916,0.0
55917.0,STARLINK-5855,PAYLOAD,2024-03-13 21:52:14,15.06772007,0.0004685,70.0008,330.7827,249.6891,110.3769,0.0014795,0.00022035,0.0,0 STARLINK-5855,1 55917U 23037D   24073.91128189  .00022035  00000-0  14795-2 0  9997,2 55917  70.0008 330.7827 0004685 249.6891 110.3769 15.06772007 54861,6924.209,95.569,549.318,542.83,0.0
55917.0,STARLINK-5855,PAYLOAD,2024-03-14 02:39:02,15.0677945,0.0004705,70.0007,330.2738,250.0398,110.0259,0.0014317,0.00021322,0.0,0 STARLINK-5855,1 55917U 23037D   24074.11043982  .00021322  00000-0  14317-2 0  9995,2 55917  70.0007 330.2738 0004705 250.0398 110.0259 15.06779450 55239,6924.186,95.568,549.309,542.793,0.0
55917.0,STARLINK-5855,PAYLOAD,2024-03-14 21:46:09,15.06814845,0.0004762,70.0008,328.2384,248.9495,111.116,0.0014059,0.00020955,0.0,0 STARLINK-5855,1 55917U 23037D   24074.90705875  .00020955  00000-0  14059-2 0  9992,2 55917  70.0008 328.2384 0004762 248.9495 111.1160 15.06814845 55018,6924.077,95.566,549.24,542.645,0.0
55917.0,STARLINK-5855,PAYLOAD,2024-03-15 02:32:56,15.06826926,0.0004619,70.001,327.7285,247.7421,112.3253,0.0015405,0.00022985,0.0,0 STARLINK-5855,1 55917U 23037D   24075.10621001  .00022985  00000-0  15405-2 0  9994,2 55917  70.0010 327.7285 0004619 247.7421 112.3253 15.06826926 55044,6924.04,95.565,549.104,542.707,0.0
55917.0,STARLINK-5855,PAYLOAD,2024-03-16 04:02:23,15.06868065,0.0004685,70.0008,325.0148,249.0246,111.0416,0.0011159,0.00016625,0.0,0 STARLINK-5855,1 55917U 23037D   24076.16833209  .00016625  00000-0  11159-2 0  9992,2 55917  70.0008 325.0148 0004685 249.0246 111.0416 15.06868065 55545,6923.914,95.562,549.023,542.536,0.0
55917.0,STARLINK-5855,PAYLOAD,2024-03-16 15:11:31,15.06883312,0.0004773,70.0007,323.828,247.3974,112.6685,0.0010569,0.00015746,0.0,0 STARLINK-5855,1 55917U 23037D   24076.63300247  .00015746  00000-0  10569-2 0  9992,2 55917  70.0007 323.8280 0004773 247.3974 112.6685 15.06883312 55271,6923.868,95.561,549.037,542.428,0.0
55917.0,STARLINK-5855,PAYLOAD,2024-03-16 21:33:52,15.06891666,0.0004748,70.0007,323.15,247.605,112.461,0.0010784,0.00016072,0.0,0 STARLINK-5855,1 55917U 23037D   24076.89852648  .00016072  00000-0  10784-2 0  9999,2 55917  70.0007 323.1500 0004748 247.6050 112.4610 15.06891666 55311,6923.842,95.561,548.995,542.42,0.0
55917.0,STARLINK-5855,PAYLOAD,2024-03-17 11:54:10,15.06909909,0.0004736,70.0007,321.6234,247.1598,112.9066,0.0010146,0.00015121,0.0,0 STARLINK-5855,1 55917U 23037D   24077.49594973  .00015121  00000-0  10146-2 0  9996,2 55917  70.0007 321.6234 0004736 247.1598 112.9066 15.06909909 55744,6923.786,95.56,548.93,542.372,0.0
55917.0,STARLINK-5855,PAYLOAD,2024-03-17 13:29:45,15.06911621,0.0004737,70.0007,321.4538,247.1158,112.9505,0.00099505,0.00014828,0.0,0 STARLINK-5855,1 55917U 23037D   24077.56232974  .00014828  00000-0  99505-3 0  9994,2 55917  70.0007 321.4538 0004737 247.1158 112.9505 15.06911621 55418,6923.781,95.56,548.926,542.366,0.0
55917.0,STARLINK-5855,PAYLOAD,2024-03-17 21:27:41,15.06922796,0.0004724,70.0007,320.6057,247.0447,113.0218,0.0010185,0.00015185,0.0,0 STARLINK-5855,1 55917U 23037D   24077.89422791  .00015185  00000-0  10185-2 0  9991,2 55917  70.0007 320.6057 0004724 247.0447 113.0218 15.06922796 55464,6923.747,95.559,548.883,542.341,0.0
55917.0,STARLINK-5855,PAYLOAD,2024-03-18 14:59:07,15.06942351,0.0004671,70.0007,318.74,246.4343,113.633,0.00090566,0.00013495,0.0,0 STARLINK-5855,1 55917U 23037D   24078.62439700  .00013495  00000-0  90566-3 0  9995,2 55917  70.0007 318.7400 0004671 246.4343 113.6330 15.06942351 55575,6923.687,95.558,548.786,542.318,0.0
55917.0,STARLINK-5855,PAYLOAD,2024-03-19 08:30:33,15.0697757,0.0004604,70.0007,316.8742,245.7902,114.2781,0.0013965,0.00020906,0.0,0 STARLINK-5855,1 55917U 23037D   24079.35455157  .00020906  00000-0  13965-2 0  9992,2 55917  70.0007 316.8742 0004604 245.7902 114.2781 15.06977570 55682,6923.579,95.556,548.632,542.256,0.0
55917.0,STARLINK-5855,PAYLOAD,2024-03-19 19:39:37,15.06996791,0.0004568,70.0006,315.6869,245.5359,114.5328,0.001384,0.00020728,0.0,0 STARLINK-5855,1 55917U 23037D   24079.81918790  .00020728  00000-0  13840-2 0  9994,2 55917  70.0006 315.6869 0004568 245.5359 114.5328 15.06996791 56093,6923.52,95.554,548.548,542.222,0.0
55917.0,STARLINK-5855,PAYLOAD,2024-03-20 08:24:16,15.07019303,0.0004502,70.0005,314.3299,245.0704,114.9992,0.0013477,0.00020192,0.0,0 STARLINK-5855,1 55917U 23037D   24080.35019296  .00020192  00000-0  13477-2 0  9999,2 55917  70.0005 314.3299 0004502 245.0704 114.9992 15.07019303 55830,6923.451,95.553,548.433,542.199,0.0
55917.0,STARLINK-5855,PAYLOAD,2024-03-20 22:44:29,15.07043812,0.000444,70.0004,312.803,244.8956,115.1748,0.0014897,0.00022352,0.0,0 STARLINK-5855,1 55917U 23037D   24080.94756513  .00022352  00000-0  14897-2 0  9991,2 55917  70.0004 312.8030 0004440 244.8956 115.1748 15.07043812 55926,6923.376,95.551,548.315,542.167,0.0
55917.0,STARLINK-5855,PAYLOAD,2024-03-21 03:31:13,15.0705333,0.0004422,70.0002,312.294,244.6301,115.4405,0.0014748,0.00022132,0.0,0 STARLINK-5855,1 55917U 23037D   24081.14668649  .00022132  00000-0  14748-2 0  9997,2 55917  70.0002 312.2940 0004422 244.6301 115.4405 15.07053330 56290,6923.347,95.551,548.273,542.15,0.0
